[
  {
    "name": "ONEWEB-0702",
    "noradId": "61608",
    "line1": "1 61608U 24188Q   26186.48335154 -.00000497  00000+0 -14395-2 0  9995",
    "line2": "2 61608  87.8898  17.3467 0002733 101.8825 258.2609 13.11416110 86880"
  },
  {
    "name": "ONEWEB-0704",
    "noradId": "61609",
    "line1": "1 61609U 24188R   26186.08968375  .00000058  00000+0  13041-3 0  9998",
    "line2": "2 61609  87.8827  32.6887 0002753  98.1775 261.9665 13.10376036 85639"
  },
  {
    "name": "ONEWEB-0705",
    "noradId": "61610",
    "line1": "1 61610U 24188S   26186.09479433  .00000597  00000+0  16730-2 0  9998",
    "line2": "2 61610  87.8829  32.6934 0002838  82.0596 278.0853 13.10374648 77808"
  },
  {
    "name": "ONEWEB-0706",
    "noradId": "61611",
    "line1": "1 61611U 24188T   26186.07950537 -.00000328  00000+0 -97579-3 0  9991",
    "line2": "2 61611  87.8825  32.7007 0002401  91.2958 268.8445 13.10376677 85725"
  },
  {
    "name": "ONEWEB-0707",
    "noradId": "61612",
    "line1": "1 61612U 24188U   26186.54443176  .00000075  00000+0  17991-3 0  9997",
    "line2": "2 61612  87.8829  32.6028 0002380  91.1734 268.9666 13.10374359 85720"
  },
  {
    "name": "ONEWEB-0708",
    "noradId": "61613",
    "line1": "1 61613U 24188V   26186.10497801  .00000695  00000+0  19541-2 0  9994",
    "line2": "2 61613  87.8816  32.7073 0002220  74.7029 285.4344 13.10377139 85642"
  }
]